{"fetched_at":"2026-03-29T16:36:15Z","count":15609,"tles":[{"name":"POPACS 3","line1":"1 39270U 13055F   26087.66915769  .00009885  00000+0  23989-3 0  9990","line2":"2 39270  81.0031 316.3964 0557308 315.0304  40.6998 14.54442225626847","category":"Other"}]}